{
  "norad_id": 64491,
  "name": "STARLINK-34530",
  "history": [
    {
      "epoch": "2026-04-11T18:38:57.817248Z",
      "apogee_km": 475.56805861900466,
      "perigee_km": 474.8306396278376,
      "latitude_deg": -2.833796699235938e-05,
      "longitude_deg": -156.58410815732722,
      "height_km": 476.0905579320745,
      "semi_major_axis_km": 6853.33634912342,
      "eccentricity": 5.38e-05,
      "inclination_deg": 53.1596,
      "raan_deg": 323.1485,
      "arg_perigee_deg": 88.7884,
      "mean_anomaly_deg": 271.3178,
      "mean_motion_rev_day": 15.30205265
    },
    {
      "epoch": "2026-04-12T21:17:52.201536Z",
      "apogee_km": 475.80507963361197,
      "perigee_km": 474.649465349984,
      "latitude_deg": -1.4449979876428051e-05,
      "longitude_deg": 157.43658764419519,
      "height_km": 475.89461922948703,
      "semi_major_axis_km": 6853.364272491797,
      "eccentricity": 8.431e-05,
      "inclination_deg": 53.1588,
      "raan_deg": 317.9902,
      "arg_perigee_deg": 66.406,
      "mean_anomaly_deg": 293.7029,
      "mean_motion_rev_day": 15.30195913
    },
    {
      "epoch": "2026-04-14T20:19:27.997248Z",
      "apogee_km": 477.7394889077714,
      "perigee_km": 472.6776078857256,
      "latitude_deg": -3.52753861544477e-05,
      "longitude_deg": 161.00391089482173,
      "height_km": 476.430526736479,
      "semi_major_axis_km": 6853.345548396748,
      "eccentricity": 0.0003693,
      "inclination_deg": 53.1596,
      "raan_deg": 308.888,
      "arg_perigee_deg": 97.4375,
      "mean_anomaly_deg": 262.7045,
      "mean_motion_rev_day": 15.30202184
    },
    {
      "epoch": "2026-04-15T16:42:09.724032Z",
      "apogee_km": 476.12343269563917,
      "perigee_km": 474.28673701689695,
      "latitude_deg": 4.6646596289145144e-06,
      "longitude_deg": -149.4505246180957,
      "height_km": 476.0460996530928,
      "semi_major_axis_km": 6853.342084856267,
      "eccentricity": 0.000134,
      "inclination_deg": 53.1582,
      "raan_deg": 304.9443,
      "arg_perigee_deg": 86.4555,
      "mean_anomaly_deg": 273.6599,
      "mean_motion_rev_day": 15.30203344
    },
    {
      "epoch": "2026-04-16T19:21:03.953664Z",
      "apogee_km": 475.95025384747623,
      "perigee_km": 474.44526153468723,
      "latitude_deg": 4.40753569064692e-05,
      "longitude_deg": 164.57413929344898,
      "height_km": 476.0646828875691,
      "semi_major_axis_km": 6853.334757691082,
      "eccentricity": 0.0001098,
      "inclination_deg": 53.1621,
      "raan_deg": 299.7893,
      "arg_perigee_deg": 87.5927,
      "mean_anomaly_deg": 272.52,
      "mean_motion_rev_day": 15.30205798
    },
    {
      "epoch": "2026-04-17T21:59:58.270560Z",
      "apogee_km": 475.9315955688753,
      "perigee_km": 474.4451092999325,
      "latitude_deg": -7.134361669526523e-05,
      "longitude_deg": 118.59482255971267,
      "height_km": 475.9872416837818,
      "semi_major_axis_km": 6853.325352434404,
      "eccentricity": 0.00010845,
      "inclination_deg": 53.1629,
      "raan_deg": 294.6308,
      "arg_perigee_deg": 82.2849,
      "mean_anomaly_deg": 277.8274,
      "mean_motion_rev_day": 15.30208948
    },
    {
      "epoch": "2026-04-18T19:56:42.722592Z",
      "apogee_km": 476.189826172782,
      "perigee_km": 474.15165245110984,
      "latitude_deg": -2.4821247554726093e-06,
      "longitude_deg": 144.2573800503693,
      "height_km": 476.3992252350307,
      "semi_major_axis_km": 6853.307739311946,
      "eccentricity": 0.0001487,
      "inclination_deg": 53.1618,
      "raan_deg": 290.3798,
      "arg_perigee_deg": 108.9182,
      "mean_anomaly_deg": 251.198,
      "mean_motion_rev_day": 15.30214847
    },
    {
      "epoch": "2026-04-19T19:27:31.046400Z",
      "apogee_km": 476.06261099690255,
      "perigee_km": 474.39176080838024,
      "latitude_deg": 1.0915386152323872e-05,
      "longitude_deg": 146.04027782985773,
      "height_km": 476.2857838991861,
      "semi_major_axis_km": 6853.364185902641,
      "eccentricity": 0.0001219,
      "inclination_deg": 53.161,
      "raan_deg": 285.8297,
      "arg_perigee_deg": 101.0639,
      "mean_anomaly_deg": 259.0499,
      "mean_motion_rev_day": 15.30195942
    },
    {
      "epoch": "2026-04-20T11:08:03.070752Z",
      "apogee_km": 476.0980105152639,
      "perigee_km": 474.3238158075046,
      "latitude_deg": -6.480620399217088e-05,
      "longitude_deg": -92.76908711815915,
      "height_km": 476.1614753884364,
      "semi_major_axis_km": 6853.347913161384,
      "eccentricity": 0.00012944,
      "inclination_deg": 53.1602,
      "raan_deg": 282.7976,
      "arg_perigee_deg": 93.392,
      "mean_anomaly_deg": 266.7228,
      "mean_motion_rev_day": 15.30201392
    },
    {
      "epoch": "2026-04-21T20:03:09.800640Z",
      "apogee_km": 475.73460403144327,
      "perigee_km": 474.760052779945,
      "latitude_deg": -3.374355848510981e-05,
      "longitude_deg": 125.73157521199293,
      "height_km": 475.75628721236217,
      "semi_major_axis_km": 6853.384328405694,
      "eccentricity": 7.11e-05,
      "inclination_deg": 53.1592,
      "raan_deg": 276.4282,
      "arg_perigee_deg": 36.806,
      "mean_anomaly_deg": 323.2989,
      "mean_motion_rev_day": 15.30189196
    },
    {
      "epoch": "2026-04-22T19:33:58.394016Z",
      "apogee_km": 476.2263196794938,
      "perigee_km": 474.21417399182246,
      "latitude_deg": -2.6822641460164752e-05,
      "longitude_deg": 127.51224050031118,
      "height_km": 475.802171698228,
      "semi_major_axis_km": 6853.357246835658,
      "eccentricity": 0.0001468,
      "inclination_deg": 53.1585,
      "raan_deg": 271.877,
      "arg_perigee_deg": 71.7043,
      "mean_anomaly_deg": 288.4117,
      "mean_motion_rev_day": 15.30198266
    },
    {
      "epoch": "2026-04-23T03:24:13.959072Z",
      "apogee_km": 475.75532403242323,
      "perigee_km": 474.64850979734183,
      "latitude_deg": 3.195468602501808e-05,
      "longitude_deg": 8.105548059879217,
      "height_km": 476.03688530124,
      "semi_major_axis_km": 6853.338916914882,
      "eccentricity": 8.075e-05,
      "inclination_deg": 53.1582,
      "raan_deg": 270.357,
      "arg_perigee_deg": 83.4072,
      "mean_anomaly_deg": 276.7021,
      "mean_motion_rev_day": 15.30204405
    },
    {
      "epoch": "2026-04-23T15:56:39.531552Z",
      "apogee_km": 476.2593895352311,
      "perigee_km": 474.10319853356214,
      "latitude_deg": -1.2972371963968706e-06,
      "longitude_deg": 177.0602529170573,
      "height_km": 476.0775085770179,
      "semi_major_axis_km": 6853.318294034396,
      "eccentricity": 0.00015731,
      "inclination_deg": 53.1621,
      "raan_deg": 267.9333,
      "arg_perigee_deg": 89.9113,
      "mean_anomaly_deg": 270.2068,
      "mean_motion_rev_day": 15.30211312
    },
    {
      "epoch": "2026-04-27T19:47:30.846912Z",
      "apogee_km": 440.62676716637907,
      "perigee_km": 438.7614085807372,
      "latitude_deg": -1.1774834223022754e-05,
      "longitude_deg": 95.70453607376452,
      "height_km": 440.5200260268587,
      "semi_major_axis_km": 6817.831087873558,
      "eccentricity": 0.0001368,
      "inclination_deg": 53.1602,
      "raan_deg": 248.392,
      "arg_perigee_deg": 85.2829,
      "mean_anomaly_deg": 274.8333,
      "mean_motion_rev_day": 15.42174103
    },
    {
      "epoch": "2026-04-28T20:00:01.000224Z",
      "apogee_km": 440.80683283710096,
      "perigee_km": 438.8405329761499,
      "latitude_deg": -18.60490515816855,
      "longitude_deg": -78.65939814147139,
      "height_km": 445.617983593781,
      "semi_major_axis_km": 6817.960682906625,
      "eccentricity": 0.0001442,
      "inclination_deg": 53.1603,
      "raan_deg": 243.6232,
      "arg_perigee_deg": 69.4693,
      "mean_anomaly_deg": 133.7829,
      "mean_motion_rev_day": 15.42130133
    },
    {
      "epoch": "2026-04-29T20:00:01.999008Z",
      "apogee_km": 440.81300355737403,
      "perigee_km": 438.9216891516953,
      "latitude_deg": -1.485778897423256,
      "longitude_deg": 79.98872569885232,
      "height_km": 440.84770707217797,
      "semi_major_axis_km": 6818.004346354534,
      "eccentricity": 0.0001387,
      "inclination_deg": 53.1599,
      "raan_deg": 238.8931,
      "arg_perigee_deg": 80.4345,
      "mean_anomaly_deg": 277.8366,
      "mean_motion_rev_day": 15.42115319
    },
    {
      "epoch": "2026-04-30T14:00:01.999872Z",
      "apogee_km": 440.7297367833671,
      "perigee_km": 439.02018846386,
      "latitude_deg": -19.578182076741598,
      "longitude_deg": 2.174559035248972,
      "height_km": 445.938301820709,
      "semi_major_axis_km": 6818.011962623614,
      "eccentricity": 0.00012537,
      "inclination_deg": 53.16,
      "raan_deg": 235.3456,
      "arg_perigee_deg": 66.0096,
      "mean_anomaly_deg": 138.4987,
      "mean_motion_rev_day": 15.42112735
    },
    {
      "epoch": "2026-05-02T04:00:08.948736Z",
      "apogee_km": 440.8527825771971,
      "perigee_km": 438.59743379180964,
      "latitude_deg": 4.4619334683801846e-05,
      "longitude_deg": -52.27195719103438,
      "height_km": 440.09052767527083,
      "semi_major_axis_km": 6817.862108184503,
      "eccentricity": 0.0001654,
      "inclination_deg": 53.1606,
      "raan_deg": 227.854,
      "arg_perigee_deg": 61.5548,
      "mean_anomaly_deg": 298.5625,
      "mean_motion_rev_day": 15.42163578
    },
    {
      "epoch": "2026-05-03T14:13:14.725920Z",
      "apogee_km": 440.32280977901974,
      "perigee_km": 439.1283202576278,
      "latitude_deg": -6.844275955284975e-05,
      "longitude_deg": 146.30558886409113,
      "height_km": 440.40372212590677,
      "semi_major_axis_km": 6817.862565018323,
      "eccentricity": 8.76e-05,
      "inclination_deg": 53.1612,
      "raan_deg": 221.111,
      "arg_perigee_deg": 67.8337,
      "mean_anomaly_deg": 292.2761,
      "mean_motion_rev_day": 15.42163423
    }
  ]
}